0 CZ-4B R/B
1 27432U 02024C   13282.49698347 -.00000027  00000-0  87665-5 0  8336
2 27432 098.7932 242.0305 0049672 252.3272 245.7736 14.13808719588484
0 CZ-4B R/B
1 27432U 02024C   13283.55737938  .00000012  00000-0  29157-4 0  8349
2 27432 098.7933 243.0735 0049665 249.2499 242.9442 14.13808478588633
0 CZ-4B R/B
1 27432U 02024C   13285.87055360  .00000104  00000-0  77248-4 0  8366
2 27432 098.7937 245.3488 0049705 242.5284 136.4777 14.13807909588962
0 CZ-4B R/B
1 27432U 02024C   13286.94024340  .00000092  00000-0  70948-4 0  8376
2 27432 098.7940 246.4009 0049776 239.4453 180.9282 14.13808377589111
0 CZ-4B R/B
1 27432U 02024C   13288.15743964  .00000045  00000-0  46255-4 0  8384
2 27432 098.7944 247.5981 0049820 235.9218 256.1629 14.13809436589282
0 CZ-4B R/B
1 27432U 02024C   13289.50246302 -.00000037  00000-0  35745-5 0  8394
2 27432 098.7948 248.9210 0049906 232.0604 261.9785 14.13810319589478
0 CZ-4B R/B
1 27432U 02024C   13290.68929316 -.00000001  00000-0  22247-4 0  8403
2 27432 098.7952 250.0884 0049958 228.6347 182.6575 14.13810189589646
0 CZ-4B R/B
1 27432U 02024C   13292.03199428  .00000081  00000-0  65441-4 0  8418
2 27432 098.7955 251.4093 0050006 224.7511 176.6937 14.13809442589838
0 CZ-4B R/B
1 27432U 02024C   13293.11084100  .00000141  00000-0  96583-4 0  8427
2 27432 098.7956 252.4707 0050049 221.6333 267.7688 14.13809136589988
0 CZ-4B R/B
1 27432U 02024C   13294.17081863  .00000146  00000-0  99371-4 0  8431
2 27432 098.7957 253.5136 0050093 218.5711 262.8007 14.13809480590133
0 CZ-4B R/B
1 27432U 02024C   13295.51867762  .00000085  00000-0  67247-4 0  8440
2 27432 098.7958 254.8398 0050186 214.7478 283.0058 14.13810562590324
